[{"OBJECT_NAME":"STARLINK-35992","OBJECT_ID":"2025-281E","EPOCH":"2026-03-20T21:55:03.230112","MEAN_MOTION":15.27588989,"ECCENTRICITY":0.00014244,"INCLINATION":43.0001,"RA_OF_ASC_NODE":279.9515,"ARG_OF_PERICENTER":268.628,"MEAN_ANOMALY":91.4408,"EPHEMERIS_TYPE":0,"CLASSIFICATION_TYPE":"U","NORAD_CAT_ID":66852,"ELEMENT_SET_NO":999,"REV_AT_EPOCH":1790,"BSTAR":0.00068153057,"MEAN_MOTION_DOT":0.00018544,"MEAN_MOTION_DDOT":0},{"OBJECT_NAME":"STARLINK-35986","OBJECT_ID":"2025-281F","EPOCH":"2026-03-20T21:49:30.518400","MEAN_MOTION":15.2761543,"ECCENTRICITY":0.0001416,"INCLINATION":42.9993,"RA_OF_ASC_NODE":279.9205,"ARG_OF_PERICENTER":286.214,"MEAN_ANOMALY":73.8556,"EPHEMERIS_TYPE":0,"CLASSIFICATION_TYPE":"U","NORAD_CAT_ID":66853,"ELEMENT_SET_NO":999,"REV_AT_EPOCH":1790,"BSTAR":0.00060413578,"MEAN_MOTION_DOT":0.00016417,"MEAN_MOTION_DDOT":0},{"OBJECT_NAME":"STARLINK-36087","OBJECT_ID":"2025-281G","EPOCH":"2026-03-21T05:34:44.059296","MEAN_MOTION":15.27600012,"ECCENTRICITY":6.548e-5,"INCLINATION":42.9985,"RA_OF_ASC_NODE":278.0433,"ARG_OF_PERICENTER":316.893,"MEAN_ANOMALY":43.187,"EPHEMERIS_TYPE":0,"CLASSIFICATION_TYPE":"U","NORAD_CAT_ID":66854,"ELEMENT_SET_NO":999,"REV_AT_EPOCH":1795,"BSTAR":0.00075101923,"MEAN_MOTION_DOT":0.00020474,"MEAN_MOTION_DDOT":0},{"OBJECT_NAME":"STARLINK-36090","OBJECT_ID":"2025-281H","EPOCH":"2026-03-20T19:54:59.488416","MEAN_MOTION":15.27575526,"ECCENTRICITY":0.00011581,"INCLINATION":42.9993,"RA_OF_ASC_NODE":280.1768,"ARG_OF_PERICENTER":258.8373,"MEAN_ANOMALY":101.2348,"EPHEMERIS_TYPE":0,"CLASSIFICATION_TYPE":"U","NORAD_CAT_ID":66855,"ELEMENT_SET_NO":999,"REV_AT_EPOCH":1789,"BSTAR":0.00069928774,"MEAN_MOTION_DOT":0.00019028,"MEAN_MOTION_DDOT":0},{"OBJECT_NAME":"STARLINK-36072","OBJECT_ID":"2025-281J","EPOCH":"2026-03-20T19:44:06.103104","MEAN_MOTION":15.27603619,"ECCENTRICITY":0.00018468,"INCLINATION":43.0016,"RA_OF_ASC_NODE":280.9897,"ARG_OF_PERICENTER":274.7078,"MEAN_ANOMALY":85.3563,"EPHEMERIS_TYPE":0,"CLASSIFICATION_TYPE":"U","NORAD_CAT_ID":66856,"ELEMENT_SET_NO":999,"REV_AT_EPOCH":1788,"BSTAR":0.00076435906,"MEAN_MOTION_DOT":0.00020846,"MEAN_MOTION_DDOT":0},{"OBJECT_NAME":"STARLINK-36083","OBJECT_ID":"2025-281K","EPOCH":"2026-03-21T06:32:03.709824","MEAN_MOTION":15.27663984,"ECCENTRICITY":0.00019437,"INCLINATION":43.0011,"RA_OF_ASC_NODE":278.3441,"ARG_OF_PERICENTER":262.2721,"MEAN_ANOMALY":97.791,"EPHEMERIS_TYPE":0,"CLASSIFICATION_TYPE":"U","NORAD_CAT_ID":66857,"ELEMENT_SET_NO":999,"REV_AT_EPOCH":1795,"BSTAR":0.0017681743,"MEAN_MOTION_DOT":0.00048843,"MEAN_MOTION_DDOT":0},{"OBJECT_NAME":"STARLINK-35118","OBJECT_ID":"2025-281L","EPOCH":"2026-03-20T22:20:57.053760","MEAN_MOTION":15.27611051,"ECCENTRICITY":0.00022684,"INCLINATION":43.0056,"RA_OF_ASC_NODE":280.0869,"ARG_OF_PERICENTER":277.6805,"MEAN_ANOMALY":82.3789,"EPHEMERIS_TYPE":0,"CLASSIFICATION_TYPE":"U","NORAD_CAT_ID":66858,"ELEMENT_SET_NO":999,"REV_AT_EPOCH":1790,"BSTAR":0.00077485299,"MEAN_MOTION_DOT":0.00021142,"MEAN_MOTION_DDOT":0},{"OBJECT_NAME":"STARLINK-35646","OBJECT_ID":"2025-281M","EPOCH":"2026-03-21T06:06:10.913472","MEAN_MOTION":15.27610834,"ECCENTRICITY":0.00019337,"INCLINATION":43.0042,"RA_OF_ASC_NODE":278.2069,"ARG_OF_PERICENTER":263.993,"MEAN_ANOMALY":96.0701,"EPHEMERIS_TYPE":0,"CLASSIFICATION_TYPE":"U","NORAD_CAT_ID":66859,"ELEMENT_SET_NO":999,"REV_AT_EPOCH":1795,"BSTAR":0.0010153279,"MEAN_MOTION_DOT":0.0002781,"MEAN_MOTION_DDOT":0},{"OBJECT_NAME":"STARLINK-35987","OBJECT_ID":"2025-281N","EPOCH":"2026-03-21T05:42:08.448192","MEAN_MOTION":15.27594555,"ECCENTRICITY":7.102e-5,"INCLINATION":42.9959,"RA_OF_ASC_NODE":278.0805,"ARG_OF_PERICENTER":298.8718,"MEAN_ANOMALY":61.2063,"EPHEMERIS_TYPE":0,"CLASSIFICATION_TYPE":"U","NORAD_CAT_ID":66860,"ELEMENT_SET_NO":999,"REV_AT_EPOCH":1795,"BSTAR":0.0011969501,"MEAN_MOTION_DOT":0.00032837,"MEAN_MOTION_DDOT":0},{"OBJECT_NAME":"STARLINK-35991","OBJECT_ID":"2025-281P","EPOCH":"2026-03-20T21:38:24.021888","MEAN_MOTION":15.2759966,"ECCENTRICITY":0.00013855,"INCLINATION":43.0005,"RA_OF_ASC_NODE":279.8599,"ARG_OF_PERICENTER":276.7942,"MEAN_ANOMALY":83.2752,"EPHEMERIS_TYPE":0,"CLASSIFICATION_TYPE":"U","NORAD_CAT_ID":66861,"ELEMENT_SET_NO":999,"REV_AT_EPOCH":1790,"BSTAR":0.00070102579,"MEAN_MOTION_DOT":0.0001909,"MEAN_MOTION_DDOT":0},{"OBJECT_NAME":"STARLINK-35974","OBJECT_ID":"2025-281Q","EPOCH":"2026-03-20T14:19:04.111968","MEAN_MOTION":15.27569863,"ECCENTRICITY":0.0001268,"INCLINATION":42.9978,"RA_OF_ASC_NODE":281.8712,"ARG_OF_PERICENTER":258.1894,"MEAN_ANOMALY":101.8816,"EPHEMERIS_TYPE":0,"CLASSIFICATION_TYPE":"U","NORAD_CAT_ID":66862,"ELEMENT_SET_NO":999,"REV_AT_EPOCH":1785,"BSTAR":0.00086759,"MEAN_MOTION_DOT":0.00023681,"MEAN_MOTION_DDOT":0},{"OBJECT_NAME":"STARLINK-36134","OBJECT_ID":"2025-281R","EPOCH":"2026-03-20T21:23:35.340864","MEAN_MOTION":15.27595545,"ECCENTRICITY":0.0002239,"INCLINATION":42.9999,"RA_OF_ASC_NODE":279.7783,"ARG_OF_PERICENTER":266.2263,"MEAN_ANOMALY":93.8333,"EPHEMERIS_TYPE":0,"CLASSIFICATION_TYPE":"U","NORAD_CAT_ID":66863,"ELEMENT_SET_NO":999,"REV_AT_EPOCH":1790,"BSTAR":0.0014321729,"MEAN_MOTION_DOT":0.00039379,"MEAN_MOTION_DDOT":0},{"OBJECT_NAME":"STARLINK-36070","OBJECT_ID":"2025-281S","EPOCH":"2026-03-21T06:28:23.254176","MEAN_MOTION":15.27610312,"ECCENTRICITY":0.00018899,"INCLINATION":43.0057,"RA_OF_ASC_NODE":278.326,"ARG_OF_PERICENTER":271.0942,"MEAN_ANOMALY":88.9694,"EPHEMERIS_TYPE":0,"CLASSIFICATION_TYPE":"U","NORAD_CAT_ID":66864,"ELEMENT_SET_NO":999,"REV_AT_EPOCH":1795,"BSTAR":0.00077474003,"MEAN_MOTION_DOT":0.00021138,"MEAN_MOTION_DDOT":0},{"OBJECT_NAME":"STARLINK-36117","OBJECT_ID":"2025-281T","EPOCH":"2026-03-20T21:34:42.087072","MEAN_MOTION":15.27592478,"ECCENTRICITY":0.00016843,"INCLINATION":42.9999,"RA_OF_ASC_NODE":279.837,"ARG_OF_PERICENTER":269.7898,"MEAN_ANOMALY":90.2761,"EPHEMERIS_TYPE":0,"CLASSIFICATION_TYPE":"U","NORAD_CAT_ID":66865,"ELEMENT_SET_NO":999,"REV_AT_EPOCH":1790,"BSTAR":0.00065792778,"MEAN_MOTION_DOT":0.00017894,"MEAN_MOTION_DDOT":0},{"OBJECT_NAME":"STARLINK-36126","OBJECT_ID":"2025-281U","EPOCH":"2026-03-20T19:45:57.509856","MEAN_MOTION":15.27596543,"ECCENTRICITY":0.0001612,"INCLINATION":43.0011,"RA_OF_ASC_NODE":280.996,"ARG_OF_PERICENTER":269.2984,"MEAN_ANOMALY":90.7683,"EPHEMERIS_TYPE":0,"CLASSIFICATION_TYPE":"U","NORAD_CAT_ID":66866,"ELEMENT_SET_NO":999,"REV_AT_EPOCH":1787,"BSTAR":0.00072200664,"MEAN_MOTION_DOT":0.00019669,"MEAN_MOTION_DDOT":0},{"OBJECT_NAME":"STARLINK-36101","OBJECT_ID":"2025-281V","EPOCH":"2026-03-21T06:39:29.157120","MEAN_MOTION":15.27603638,"ECCENTRICITY":0.00025254,"INCLINATION":43.0019,"RA_OF_ASC_NODE":278.3831,"ARG_OF_PERICENTER":273.1675,"MEAN_ANOMALY":86.8888,"EPHEMERIS_TYPE":0,"CLASSIFICATION_TYPE":"U","NORAD_CAT_ID":66867,"ELEMENT_SET_NO":999,"REV_AT_EPOCH":1794,"BSTAR":0.00073949389,"MEAN_MOTION_DOT":0.00020158,"MEAN_MOTION_DDOT":0}]
