STARLINK-35992          
1 66852U 25281E   26079.91323183  .00018544  00000+0  68153-3 0  9996
2 66852  43.0001 279.9515 0001424 268.6280  91.4408 15.27588989 17903
STARLINK-35986          
1 66853U 25281F   26079.90938100  .00016417  00000+0  60414-3 0  9996
2 66853  42.9993 279.9205 0001416 286.2140  73.8556 15.27615430 17900
STARLINK-36087          
1 66854U 25281G   26080.23245439  .00020474  00000+0  75102-3 0  9999
2 66854  42.9985 278.0433 0000654 316.8930  43.1870 15.27600012 17959
STARLINK-36090          
1 66855U 25281H   26079.82985519  .00019028  00000+0  69929-3 0  9996
2 66855  42.9993 280.1768 0001158 258.8373 101.2348 15.27575526 17890
STARLINK-36072          
1 66856U 25281J   26079.82229286  .00020846  00000+0  76436-3 0  9990
2 66856  43.0016 280.9897 0001846 274.7078  85.3563 15.27603619 17888
STARLINK-36083          
1 66857U 25281K   26080.27226516  .00048843  00000+0  17682-2 0  9999
2 66857  43.0011 278.3441 0001943 262.2721  97.7910 15.27663984 17957
STARLINK-35118          
1 66858U 25281L   26079.93121590  .00021142  00000+0  77485-3 0  9998
2 66858  43.0056 280.0869 0002268 277.6805  82.3789 15.27611051 17902
STARLINK-35646          
1 66859U 25281M   26080.25429298  .00027810  00000+0  10153-2 0  9998
2 66859  43.0042 278.2069 0001933 263.9930  96.0701 15.27610834 17953
STARLINK-35987          
1 66860U 25281N   26080.23759778  .00032837  00000+0  11970-2 0  9990
2 66860  42.9959 278.0805 0000710 298.8718  61.2063 15.27594555 17955
STARLINK-35991          
1 66861U 25281P   26079.90166692  .00019090  00000+0  70103-3 0  9990
2 66861  43.0005 279.8599 0001385 276.7942  83.2752 15.27599660 17908
STARLINK-35974          
1 66862U 25281Q   26079.59657537  .00023681  00000+0  86759-3 0  9994
2 66862  42.9978 281.8712 0001268 258.1894 101.8816 15.27569863 17850
STARLINK-36134          
1 66863U 25281R   26079.89138126  .00039379  00000+0  14322-2 0  9993
2 66863  42.9999 279.7783 0002239 266.2263  93.8333 15.27595545 17903
STARLINK-36070          
1 66864U 25281S   26080.26971359  .00021138  00000+0  77474-3 0  9992
2 66864  43.0057 278.3260 0001889 271.0942  88.9694 15.27610312 17954
STARLINK-36117          
1 66865U 25281T   26079.89909823  .00017894  00000+0  65793-3 0  9992
2 66865  42.9999 279.8370 0001684 269.7898  90.2761 15.27592478 17901
STARLINK-36126          
1 66866U 25281U   26079.82358229  .00019669  00000+0  72201-3 0  9998
2 66866  43.0011 280.9960 0001612 269.2984  90.7683 15.27596543 17870
STARLINK-36101          
1 66867U 25281V   26080.27742080  .00020158  00000+0  73949-3 0  9997
2 66867  43.0019 278.3831 0002525 273.1675  86.8888 15.27603638 17947
